*******************************************************************************
 Revised: Dec 04, 2019            Sinope / (Jupiter)                        509

 SATELLITE PHYSICAL PROPERTIES:
  Radius (km)             = 14              Density (g cm^-3)   =              
  Mass (10^20 kg )        =                 Geometric Albedo    =  
                                            V(1,0)              = +11.6 

 SATELLITE ORBITAL DATA:
  Semi-major axis, a (km) = 23700 (10^3)    Orbital period      = 758 d (retro)
  Eccentricity, e         =   0.275         Rotational period   = 
  Inclination, i  (deg)   =  153            Local invar ref. pln= Sun
*******************************************************************************
 
 
*******************************************************************************
Ephemeris / WWW_USER Wed Jun 17 12:33:03 2020 Pasadena, USA      / Horizons
*******************************************************************************
Target body name: Sinope (509)                    {source: jup343_merged}
Center body name: Solar System Barycenter (0)     {source: DE431mx}
Center-site name: BODY CENTER
*******************************************************************************
Start time      : A.D. 2000-Jun-05 00:00:00.0000 TDB
Stop  time      : A.D. 2040-May-26 00:00:00.0000 TDB
Step-size       : 14400 minutes
*******************************************************************************
Center geodetic : 0.00000000,0.00000000,0.0000000 {E-lon(deg),Lat(deg),Alt(km)}
Center cylindric: 0.00000000,0.00000000,0.0000000 {E-lon(deg),Dxy(km),Dz(km)}
Center radii    : (undefined)                                                  
Output units    : AU-D
Output type     : GEOMETRIC cartesian states
Output format   : 3 (position, velocity, LT, range, range-rate)
Reference frame : Ecliptic of J2000.0
*******************************************************************************
JDTDB
   X     Y     Z
   VX    VY    VZ
   LT    RG    RR
*******************************************************************************
$$SOE
2455600.500000000 = A.D. 2011-Feb-08 00:00:00.0000 TDB 
 X = 4.931625718194555E+00 Y = 1.079750241160717E+00 Z =-1.759032874495692E-01
 VX=-6.785808893542350E-04 VY= 6.877773934320430E-03 VZ= 2.350692877865168E-04
 LT= 2.917507802729376E-02 RG= 5.051508168278079E+00 RR= 7.994486999499817E-04
2455610.500000000 = A.D. 2011-Feb-18 00:00:00.0000 TDB 
 X = 4.924025092202770E+00 Y = 1.148003154938395E+00 Z =-1.733420526641587E-01
 VX=-8.429080746771579E-04 VY= 6.772567071681509E-03 VZ= 2.773643792599207E-04
 LT= 2.921863311329051E-02 RG= 5.059049497644081E+00 RR= 7.069211214518101E-04
2455620.500000000 = A.D. 2011-Feb-28 00:00:00.0000 TDB 
 X = 4.914738639533947E+00 Y = 1.215197868284767E+00 Z =-1.703525047509311E-01
 VX=-1.015912763758643E-03 VY= 6.666252879336911E-03 VZ= 3.207054123284230E-04
 LT= 2.925651033620900E-02 RG= 5.065607735493024E+00 RR= 6.027386570631471E-04
2455630.500000000 = A.D. 2011-Mar-10 00:00:00.0000 TDB 
 X = 4.903674487339355E+00 Y = 1.281327251017157E+00 Z =-1.669251214925876E-01
 VX=-1.198623551536790E-03 VY= 6.559658835346892E-03 VZ= 3.648898968157044E-04
 LT= 2.928802133002703E-02 RG= 5.071063694942846E+00 RR= 4.863872259409295E-04
2455640.500000000 = A.D. 2011-Mar-20 00:00:00.0000 TDB 
 X = 4.890730270939856E+00 Y = 1.346393695478570E+00 Z =-1.630528994986398E-01
 VX=-1.392102977670881E-03 VY= 6.453870204560013E-03 VZ= 4.096121926126446E-04
 LT= 2.931245104678492E-02 RG= 5.075293569277228E+00 RR= 3.574692776400293E-04
2455650.500000000 = A.D. 2011-Mar-30 00:00:00.0000 TDB 
 X = 4.875793050360749E+00 Y = 1.410411942595463E+00 Z =-1.587325226984676E-01
 VX=-1.597392279729081E-03 VY= 6.350279604884875E-03 VZ= 4.544356027846272E-04
 LT= 2.932906687231155E-02 RG= 5.078170510284616E+00 RR= 2.157907666734965E-04
2455660.500000000 = A.D. 2011-Apr-09 00:00:00.0000 TDB 
 X = 4.858739910806224E+00 Y = 1.473412388946217E+00 Z =-1.539658212279316E-01
 VX=-1.815428806479453E-03 VY= 6.250632318010292E-03 VZ= 4.987625626433151E-04
 LT= 2.933713354960603E-02 RG= 5.079567212161669E+00 RR= 6.147577111139974E-05
2455670.500000000 = A.D. 2011-Apr-19 00:00:00.0000 TDB 
 X = 4.839439549103481E+00 Y = 1.535444787424719E+00 Z =-1.487615256976818E-01
 VX=-2.046930694641620E-03 VY= 6.157057703832111E-03 VZ= 5.418061505236612E-04
 LT= 2.933593555631991E-02 RG= 5.079359786054197E+00 RR=-1.048902091455223E-04
2455680.500000000 = A.D. 2011-Apr-29 00:00:00.0000 TDB 
 X = 4.817755190183412E+00 Y = 1.596582135543108E+00 Z =-1.431372784555337E-01
 VX=-2.292246247058868E-03 VY= 6.072072620010069E-03 VZ= 5.825682790429708E-04
 LT= 2.932480850510160E-02 RG= 5.077433196858256E+00 RR=-2.820924994110794E-04
2455690.500000000 = A.D. 2011-May-09 00:00:00.0000 TDB 
 X = 4.793549173796835E+00 Y = 1.656924383012498E+00 Z =-1.371217964715531E-01
 VX=-2.551171814672396E-03 VY= 5.998538643569975E-03 VZ= 6.198326685943657E-04
 LT= 2.930318064644111E-02 RG= 5.073688449214956E+00 RR=-4.681082010188721E-04
2455700.500000000 = A.D. 2011-May-19 00:00:00.0000 TDB 
 X = 4.766689465190014E+00 Y = 1.716601397668152E+00 Z =-1.307569897515533E-01
 VX=-2.822752511188350E-03 VY= 5.939553263181976E-03 VZ= 6.521825829604190E-04
 LT= 2.927062445673157E-02 RG= 5.068051519706425E+00 RR=-6.599413291535737E-04
2455710.500000000 = A.D. 2011-May-29 00:00:00.0000 TDB 
 X = 4.737058134092035E+00 Y = 1.775774443273676E+00 Z =-1.240997340740497E-01
 VX=-3.105093805780669E-03 VY= 5.898258979420070E-03 VZ= 6.780538312438992E-04
 LT= 2.922691643531068E-02 RG= 5.060483710392584E+00 RR=-8.535110202219515E-04
2455720.500000000 = A.D. 2011-Jun-08 00:00:00.0000 TDB 
 X = 4.704561493665994E+00 Y = 1.834635311816516E+00 Z =-1.172229039550752E-01
 VX=-3.395226122424789E-03 VY= 5.877565897560796E-03 VZ= 6.958305840611773E-04
 LT= 2.917210066141361E-02 RG= 5.050992653356423E+00 RR=-1.043641869658333E-03
2455730.500000000 = A.D. 2011-Jun-18 00:00:00.0000 TDB 
 X = 4.669141115734037E+00 Y = 1.893402305427396E+00 Z =-1.102152280991104E-01
 VX=-3.689073585072136E-03 VY= 5.879804085265269E-03 VZ= 7.039841639023508E-04
 LT= 2.910654874140299E-02 RG= 5.039642690245094E+00 RR=-1.224205900880765E-03
2455740.500000000 = A.D. 2011-Jun-28 00:00:00.0000 TDB 
 X = 4.630784432312467E+00 Y = 1.952312562116382E+00 Z =-1.031795837199946E-01
 VX=-3.981574417953833E-03 VY= 5.906349520734930E-03 VZ= 7.012434131213795E-04
 LT= 2.903100630956371E-02 RG= 5.026562923632963E+00 RR=-1.388449040558588E-03
2455750.500000000 = A.D. 2011-Jul-08 00:00:00.0000 TDB 
 X = 4.589533261016896E+00 Y = 2.011610790507871E+00 Z =-9.622952938287119E-02
 VX=-4.266977013378348E-03 VY= 5.957292853493120E-03 VZ= 6.867714809919168E-04
 LT= 2.894661535060560E-02 RG= 5.011951082043134E+00 RR=-1.529497377671280E-03
2455760.500000000 = A.D. 2011-Jul-18 00:00:00.0000 TDB 
 X = 4.545488544069396E+00 Y = 2.071535237401159E+00 Z =-8.948418034043529E-02
 VX=-4.539294414404209E-03 VY= 6.031230186885433E-03 VZ= 6.603143125282909E-04
 LT= 2.885490330186714E-02 RG= 4.996071633052511E+00 RR=-1.640987797814319E-03
2455770.500000000 = A.D. 2011-Jul-28 00:00:00.0000 TDB 
 X = 4.498809997151595E+00 Y = 2.132302453858668E+00 Z =-8.306189022249966E-02
 VX=-4.792853520847238E-03 VY= 6.125240224747275E-03 VZ= 6.222856159493277E-04
 LT= 2.875773449186413E-02 RG= 4.979247375137146E+00 RR=-1.717721604874429E-03
2455780.500000000 = A.D. 2011-Aug-07 00:00:00.0000 TDB 
 X = 4.449710192895463E+00 Y = 2.194092892185849E+00 Z =-7.707350679059635E-02
 VX=-5.022840928914058E-03 VY= 6.235073048711287E-03 VZ= 5.737646567679611E-04
 LT= 2.865722613933872E-02 RG= 4.961844893358441E+00 RR=-1.756217548452199E-03
2455790.500000000 = A.D. 2011-Aug-17 00:00:00.0000 TDB 
 X = 4.398443644209961E+00 Y = 2.257039360615031E+00 Z =-7.161611024239915E-02
 VX=-5.225741216773624E-03 VY= 6.355524049528616E-03 VZ= 5.164034587978002E-04
 LT= 2.855563803295136E-02 RG= 4.944255457993930E+00 RR=-1.755055576080213E-03
2455800.500000000 = A.D. 2011-Aug-27 00:00:00.0000 TDB 
 X = 4.345292386820606E+00 Y = 2.321219853512948E+00 Z =-6.676806029308145E-02
 VX=-5.399589720823336E-03 VY= 6.480920767290531E-03 VZ= 4.522623551131091E-04
 LT= 2.845524998846394E-02 RG= 4.926873806906271E+00 RR=-1.714951744881280E-03
2455810.500000000 = A.D. 2011-Sep-06 00:00:00.0000 TDB 
 X = 4.290550101194500E+00 Y = 2.386655428380682E+00 Z =-6.258590695829543E-02
 VX=-5.544011238161301E-03 VY= 6.605629715981176E-03 VZ= 3.836081394024195E-04
 LT= 2.835824275377839E-02 RG= 4.910077524889897E+00 RR=-1.638569733763764E-03
2455820.500000000 = A.D. 2011-Sep-16 00:00:00.0000 TDB 
 X = 4.234506845352605E+00 Y = 2.453312889635886E+00 Z =-5.910335105650966E-02
 VX=-5.660066309615499E-03 VY= 6.724498559369194E-03 VZ= 3.127120550741920E-04
 LT= 2.826659605616927E-02 RG= 4.894209391096561E+00 RR=-1.530129235004159E-03
2455830.500000000 = A.D. 2011-Sep-26 00:00:00.0000 TDB 
 X = 4.177436063107081E+00 Y = 2.521111321399544E+00 Z =-5.633209073954943E-02
 VX=-5.749961262478926E-03 VY= 6.833177238449326E-03 VZ= 2.416786277705269E-04
 LT= 2.818201300658100E-02 RG= 4.879564290045130E+00 RR=-1.394901040373493E-03
2455840.500000000 = A.D. 2011-Oct-06 00:00:00.0000 TDB 
 X = 4.119584882300983E+00 Y = 2.589931121232310E+00 Z =-5.426414336981001E-02
 VX=-5.816691686532689E-03 VY= 6.928296528350854E-03 VZ= 1.723236878163911E-04
 LT= 2.810587467619645E-02 RG= 4.866381346798267E+00 RR=-1.238681251770750E-03
2455850.500000000 = A.D. 2011-Oct-16 00:00:00.0000 TDB 
 X = 4.061168036781720E+00 Y = 2.659624134806213E+00 Z =-5.287511597830383E-02
 VX=-5.863683458876817E-03 VY= 7.007513087970085E-03 VZ= 1.061064449990307E-04
 LT= 2.803922378892952E-02 RG= 4.854841103405024E+00 RR=-1.067318824134467E-03
